{
  "norad_id": 62095,
  "name": "STARLINK-11369 [DTC]",
  "history": [
    {
      "epoch": "2026-03-28T20:00:01.999872",
      "apogee_km": 357.5663853881715,
      "perigee_km": 355.2659967091731,
      "latitude_deg": 42.99978037966903,
      "longitude_deg": 109.50222208001651,
      "semi_major_axis_km": 6734.553191048672,
      "eccentricity": 0.00017079,
      "inclination_deg": 42.9998,
      "raan_deg": 287.5398,
      "arg_perigee_deg": 258.0102,
      "mean_anomaly_deg": 172.5266,
      "mean_motion_rev_day": 15.70867595
    },
    {
      "epoch": "2026-03-29T00:00:01.999296",
      "apogee_km": 357.9532526207786,
      "perigee_km": 355.58256609268574,
      "latitude_deg": -38.22232818366005,
      "longitude_deg": 125.50222143996507,
      "semi_major_axis_km": 6734.904909356732,
      "eccentricity": 0.000176,
      "inclination_deg": 43.0001,
      "raan_deg": 286.5348,
      "arg_perigee_deg": 263.9395,
      "mean_anomaly_deg": 30.2796,
      "mean_motion_rev_day": 15.70744543
    }
  ]
}